0 SL-14 R/B
1 15475U 85003G   13282.45963885  .00000040  00000-0  17759-3 0  1158
2 15475 082.6078 266.2596 0038477 127.9328 032.3177 12.55143581316426
0 SL-14 R/B
1 15475U 85003G   13287.13878119 -.00000016  00000-0 -16645-3 0  1173
2 15475 082.6083 263.3243 0038549 117.7640 294.8025 12.55144067317016
0 SL-14 R/B
1 15475U 85003G   13289.47122069  .00000014  00000-0  17698-4 0  1185
2 15475 082.6091 261.8607 0038571 112.8271 033.6926 12.55143691317306
0 SL-14 R/B
1 15475U 85003G   13292.15795404  .00000021  00000-0  62356-4 0  1193
2 15475 082.6096 260.1759 0038591 106.8068 293.7541 12.55143578317643
0 SL-14 R/B
1 15475U 85003G   13294.17025969  .00000034  00000-0  14173-3 0  1208
2 15475 082.6098 258.9141 0038603 102.4103 026.2858 12.55143485317895
